Street Name,Municipality,Province,Postal Code
DONORA DR,TORONTO,ON,M4B 1B3
DONORA DR,TORONTO,ON,M4B 1B4
DONORA DR,TORONTO,ON,M4B 1B5
DONORA DR,TORONTO,ON,M4B 1B6
AVIS CRES,TORONTO,ON,M4B 1B7
AVIS CRES,TORONTO,ON,M4B 1B8
CHAPMAN AVE,TORONTO,ON,M4B 1C2
CHAPMAN AVE,TORONTO,ON,M4B 1C3
CHAPMAN AVE,TORONTO,ON,M4B 1C4
CHAPMAN AVE,TORONTO,ON,M4B 1C5
CHAPMAN AVE,TORONTO,ON,M4B 1C6
BRENTON ST,TORONTO,ON,M4B 1C7
BRENTON ST,TORONTO,ON,M4B 1C8
BRENTON ST,TORONTO,ON,M4B 1C9
BRENTON ST,TORONTO,ON,M4B 1E1
FERRIS RD,TORONTO,ON,M4B 1E7
FERRIS RD,TORONTO,ON,M4B 1E8
FERRIS RD,TORONTO,ON,M4B 1E9
FERRIS RD,TORONTO,ON,M4B 1G1
FERRIS RD,TORONTO,ON,M4B 1G2
FERRIS RD,TORONTO,ON,M4B 1G3
FERRIS RD,TORONTO,ON,M4B 1G4
FERRIS RD,TORONTO,ON,M4B 1G5
FERRIS RD,TORONTO,ON,M4B 1G6
FERRIS RD,TORONTO,ON,M4B 1G7
FERRIS RD,TORONTO,ON,M4B 1G8
FERRIS RD,TORONTO,ON,M4B 1G9
FERRIS RD,TORONTO,ON,M4B 1H1
FERRIS RD,TORONTO,ON,M4B 1H2
FERRIS RD,TORONTO,ON,M4B 1H3
FERRIS RD,TORONTO,ON,M4B 1H4
FERRIS RD,TORONTO,ON,M4B 1H5
FERRIS RD,TORONTO,ON,M4B 1H6
GLEN ALBERT DR,TORONTO,ON,M4B 1J1
GLEN ALBERT DR,TORONTO,ON,M4B 1J2
GLEN ALBERT DR,TORONTO,ON,M4B 1J3
GLEN ROBERT DR,TORONTO,ON,M4B 1J4
GLEN ROBERT DR,TORONTO,ON,M4B 1J5
GLENCREST BLVD,TORONTO,ON,M4B 1L2
GLENCREST BLVD,TORONTO,ON,M4B 1L3
GLENCREST BLVD,TORONTO,ON,M4B 1L4
GLENCREST BLVD,TORONTO,ON,M4B 1L5
GLENCREST BLVD,TORONTO,ON,M4B 1L6
GLENCREST BLVD,TORONTO,ON,M4B 1L7
GLENCREST BLVD,TORONTO,ON,M4B 1L8
GLENCREST BLVD,TORONTO,ON,M4B 1L9
GARDENS CRES,TORONTO,ON,M4B 1T4
GARDENS CRES,TORONTO,ON,M4B 1T5
DALECREST DR,TORONTO,ON,M4B 1V2
DALECREST DR,TORONTO,ON,M4B 1V3
ADAIR RD,TORONTO,ON,M4B 1V4
ADAIR RD,TORONTO,ON,M4B 1V5
ADAIR RD,TORONTO,ON,M4B 1V6
ADAIR RD,TORONTO,ON,M4B 1V7
BARRETT RD,TORONTO,ON,M4B 1V8
BARRETT RD,TORONTO,ON,M4B 1V9
FURNIVAL RD,TORONTO,ON,M4B 1W1
FURNIVAL RD,TORONTO,ON,M4B 1W2
FURNIVAL RD,TORONTO,ON,M4B 1W3
FURNIVAL RD,TORONTO,ON,M4B 1W4
FURNIVAL RD,TORONTO,ON,M4B 1W5
FURNIVAL RD,TORONTO,ON,M4B 1W6
FURNIVAL RD,TORONTO,ON,M4B 1W7
FURNIVAL RD,TORONTO,ON,M4B 1W8
CURITY AVE,TORONTO,ON,M4B 1X2
CURITY AVE,TORONTO,ON,M4B 1X4
CURITY AVE,TORONTO,ON,M4B 1X7
DOHME AVE,TORONTO,ON,M4B 1Y7
DOHME AVE,TORONTO,ON,M4B 1Y8
DOHME AVE,TORONTO,ON,M4B 1Y9
BERMONDSEY RD,TORONTO,ON,M4B 1Z1
BERMONDSEY RD,TORONTO,ON,M4B 1Z5
BERMONDSEY RD,TORONTO,ON,M4B 1Z7
GALBRAITH AVE,TORONTO,ON,M4B 2B4
GALBRAITH AVE,TORONTO,ON,M4B 2B5
GALBRAITH AVE,TORONTO,ON,M4B 2B6
GALBRAITH AVE,TORONTO,ON,M4B 2B7
GALBRAITH AVE,TORONTO,ON,M4B 2B8
AMSTERDAM AVE,TORONTO,ON,M4B 2B9
AMSTERDAM AVE,TORONTO,ON,M4B 2C1
AMSTERDAM AVE,TORONTO,ON,M4B 2C2
AMSTERDAM AVE,TORONTO,ON,M4B 2C3
GLENSHAW CRES,TORONTO,ON,M4B 2C8
GLENSHAW CRES,TORONTO,ON,M4B 2C9
GLENSHAW CRES,TORONTO,ON,M4B 2E1
DAWES RD,TORONTO,ON,M4B 2E2
DAWES RD,TORONTO,ON,M4B 2E3
DAWES RD,TORONTO,ON,M4B 2E4
DAWES RD,TORONTO,ON,M4B 2E6
DAWES RD,TORONTO,ON,M4B 2E7
DAWES RD,TORONTO,ON,M4B 2E8
DAWES RD,TORONTO,ON,M4B 2E9
DAWES RD,TORONTO,ON,M4B 2G5
DAWES RD,TORONTO,ON,M4B 2G6
ELMONT DR,TORONTO,ON,M4B 2L9
ELMONT DR,TORONTO,ON,M4B 2M1
ELMONT DR,TORONTO,ON,M4B 2M2
FERNCLIFF CRT,TORONTO,ON,M4B 2M3
FERNCLIFF CRT,TORONTO,ON,M4B 2M3
DRUID CRT,TORONTO,ON,M4B 2M5
DRUID CRT,TORONTO,ON,M4B 2M5
CEDARCREST BLVD,TORONTO,ON,M4B 2N9
CEDARCREST BLVD,TORONTO,ON,M4B 2P1
CEDARCREST BLVD,TORONTO,ON,M4B 2P2
CEDARCREST BLVD,TORONTO,ON,M4B 2P3
CEDARCREST BLVD,TORONTO,ON,M4B 2P4
FERRIS CRES,TORONTO,ON,M4B 2P5
GLEN GANNON DR,TORONTO,ON,M4B 2W3
GLEN GANNON DR,TORONTO,ON,M4B 2W4
GLENBURN AVE,TORONTO,ON,M4B 2W7
GLENBURN AVE,TORONTO,ON,M4B 2X2
GLENBURN AVE,TORONTO,ON,M4B 2X3
GLENBURN AVE,TORONTO,ON,M4B 2X4
GLENBURN AVE,TORONTO,ON,M4B 2X5
GLENBURN AVE,TORONTO,ON,M4B 2X6
GLENBURN AVE,TORONTO,ON,M4B 2X7
GLEN EDEN CRES,TORONTO,ON,M4B 2X8
GLEN EDEN CRES,TORONTO,ON,M4B 2X9
GLENFIELD CRES,TORONTO,ON,M4B 2Y1
ALDER RD,TORONTO,ON,M4B 2Y2
ALDER RD,TORONTO,ON,M4B 2Y3
ALDER RD,TORONTO,ON,M4B 2Y4
ALDER RD,TORONTO,ON,M4B 2Y5
FAIRCREST CIR,TORONTO,ON,M4B 2Y6
FAIRCREST CIR,TORONTO,ON,M4B 2Y6
ASPEN AVE,TORONTO,ON,M4B 2Y9
ASPEN AVE,TORONTO,ON,M4B 2Z1
ELSWICK RD,TORONTO,ON,M4B 2Z4
ELSWICK RD,TORONTO,ON,M4B 2Z5
ELSWICK RD,TORONTO,ON,M4B 2Z6
ELSWICK RD,TORONTO,ON,M4B 2Z7
DENVALE RD,TORONTO,ON,M4B 3B3
DENVALE RD,TORONTO,ON,M4B 3B4
DENVALE RD,TORONTO,ON,M4B 3B5
DENVALE RD,TORONTO,ON,M4B 3B6
DENVALE RD,TORONTO,ON,M4B 3B7
DENVALE RD,TORONTO,ON,M4B 3B8
DENVALE RD,TORONTO,ON,M4B 3B9
ASHALL BLVD,TORONTO,ON,M4B 3C1
ASHALL BLVD,TORONTO,ON,M4B 3C2
EDEN PARK RD,TORONTO,ON,M4B 3C3
EDEN PARK RD,TORONTO,ON,M4B 3C4
DORIS DR,TORONTO,ON,M4B 3C7
DORIS DR,TORONTO,ON,M4B 3C8
DORIS DR,TORONTO,ON,M4B 3C9
CRANFIELD RD,TORONTO,ON,M4B 3G7
CRANFIELD RD,TORONTO,ON,M4B 3H1
CRANFIELD RD,TORONTO,ON,M4B 3H3
CRANFIELD RD,TORONTO,ON,M4B 3H6
CURRAN DR,TORONTO,ON,M4B 3K8
GEORGE WEBSTER RD,TORONTO,ON,M4B 3K9
GLENBURN AVE,TORONTO,ON,M4B 3L7
CURITY AVE,TORONTO,ON,M4B 3L8
CURITY AVE,TORONTO,ON,M4B 3M2
DOHME AVE,TORONTO,ON,M4B 3M4
BLAIR ST,TORONTO,ON,M4B 3N5
BLAIR ST,TORONTO,ON,M4B 3N6
BLAIR ST,TORONTO,ON,M4B 3P6
DANFORTH AVE,EAST YORK,ON,M4C 1K6
DANFORTH AVE,EAST YORK,ON,M4C 1M5
DANFORTH AVE,EAST YORK,ON,M4C 1M6
DANFORTH AVE,EAST YORK,ON,M4C 1M7
DANFORTH AVE,EAST YORK,ON,M4C 1N2
COLEMAN AVE,EAST YORK,ON,M4C 1R4
COLEMAN AVE,EAST YORK,ON,M4C 1R5
DENTON AVE,EAST YORK,ON,M4C 1T7
DENTON AVE,EAST YORK,ON,M4C 1T8
GATWICK AVE,EAST YORK,ON,M4C 1W2
GATWICK AVE,EAST YORK,ON,M4C 1W3
GATWICK AVE,EAST YORK,ON,M4C 1W4
GATWICK AVE,EAST YORK,ON,M4C 1W5
DENTONIA PARK AVE,EAST YORK,ON,M4C 1W6
DENTONIA PARK AVE,EAST YORK,ON,M4C 1W7
DENTONIA PARK AVE,EAST YORK,ON,M4C 1W8
DENTONIA PARK AVE,EAST YORK,ON,M4C 1W9
DENTONIA PARK AVE,EAST YORK,ON,M4C 1X1
DENTONIA PARK AVE,EAST YORK,ON,M4C 1X2
DONCASTER AVE,EAST YORK,ON,M4C 1Y4
DONCASTER AVE,EAST YORK,ON,M4C 1Y5
DONCASTER AVE,EAST YORK,ON,M4C 1Y6
DONCASTER AVE,EAST YORK,ON,M4C 1Y7
DONCASTER AVE,EAST YORK,ON,M4C 1Y8
DONCASTER AVE,EAST YORK,ON,M4C 1Y9
EPSOM AVE,EAST YORK,ON,M4C 2A5
EPSOM AVE,EAST YORK,ON,M4C 2A6
EPSOM AVE,EAST YORK,ON,M4C 2A7
EPSOM AVE,EAST YORK,ON,M4C 2A8
FRATER AVE,EAST YORK,ON,M4C 2H3
FRATER AVE,EAST YORK,ON,M4C 2H4
FRATER AVE,EAST YORK,ON,M4C 2H5
FRATER AVE,EAST YORK,ON,M4C 2H6
FRATER AVE,EAST YORK,ON,M4C 2H7
FRATER AVE,EAST YORK,ON,M4C 2H8
CREWE AVE,EAST YORK,ON,M4C 2H9
CREWE AVE,EAST YORK,ON,M4C 2J1
CREWE AVE,EAST YORK,ON,M4C 2J2
CREWE AVE,EAST YORK,ON,M4C 2J3
DUNKIRK RD,EAST YORK,ON,M4C 2L9
DUNKIRK RD,EAST YORK,ON,M4C 2M1
DUNKIRK RD,EAST YORK,ON,M4C 2M2
DUNKIRK RD,EAST YORK,ON,M4C 2M3
DUNKIRK RD,EAST YORK,ON,M4C 2M4
DUNKIRK RD,EAST YORK,ON,M4C 2M5
DUNKIRK RD,EAST YORK,ON,M4C 2M6
BARKER AVE,EAST YORK,ON,M4C 2N3
BARKER AVE,EAST YORK,ON,M4C 2N4
BARKER AVE,EAST YORK,ON,M4C 2N5
BARKER AVE,EAST YORK,ON,M4C 2N6
BARKER AVE,EAST YORK,ON,M4C 2N7
BARKER AVE,EAST YORK,ON,M4C 2N8
BARKER AVE,EAST YORK,ON,M4C 2N9
BARKER AVE,EAST YORK,ON,M4C 2P1
BARKER AVE,EAST YORK,ON,M4C 2P2
BARKER AVE,EAST YORK,ON,M4C 2P3
BARKER AVE,EAST YORK,ON,M4C 2P4
BARKER AVE,EAST YORK,ON,M4C 2P5
CAMBRAI AVE,EAST YORK,ON,M4C 2P6
CAMBRAI AVE,EAST YORK,ON,M4C 2P7
COSBURN AVE,EAST YORK,ON,M4C 2T9
COSBURN AVE,EAST YORK,ON,M4C 2V1
COSBURN AVE,EAST YORK,ON,M4C 2V2
COSBURN AVE,EAST YORK,ON,M4C 2V4
COSBURN AVE,EAST YORK,ON,M4C 2V5
COSBURN AVE,EAST YORK,ON,M4C 2V6
COSBURN AVE,EAST YORK,ON,M4C 2V7
COSBURN AVE,EAST YORK,ON,M4C 2V8
COSBURN AVE,EAST YORK,ON,M4C 2V9
COSBURN AVE,EAST YORK,ON,M4C 2W1
COSBURN AVE,EAST YORK,ON,M4C 2W2
COSBURN AVE,EAST YORK,ON,M4C 2W3
COSBURN AVE,EAST YORK,ON,M4C 2W4
COSBURN AVE,EAST YORK,ON,M4C 2W5
COSBURN AVE,EAST YORK,ON,M4C 2W6
COSBURN AVE,EAST YORK,ON,M4C 2W7
COSBURN AVE,EAST YORK,ON,M4C 2W8
COSBURN AVE,EAST YORK,ON,M4C 2W9
COSBURN AVE,EAST YORK,ON,M4C 2X1
BRACEBRIDGE AVE,EAST YORK,ON,M4C 2X6
BRACEBRIDGE AVE,EAST YORK,ON,M4C 2X7
BARBARA CRES,EAST YORK,ON,M4C 3B1
BARBARA CRES,EAST YORK,ON,M4C 3B2
COXWELL AVE,EAST YORK,ON,M4C 3E1
COXWELL AVE,EAST YORK,ON,M4C 3E2
COXWELL AVE,EAST YORK,ON,M4C 3E3
COXWELL AVE,EAST YORK,ON,M4C 3E4
COXWELL AVE,EAST YORK,ON,M4C 3E5
COXWELL AVE,EAST YORK,ON,M4C 3E6
COXWELL AVE,EAST YORK,ON,M4C 3E8
COXWELL AVE,EAST YORK,ON,M4C 3G1
COXWELL AVE,EAST YORK,ON,M4C 3G2
COXWELL AVE,EAST YORK,ON,M4C 3G3
COXWELL AVE,EAST YORK,ON,M4C 3G4
COXWELL AVE,EAST YORK,ON,M4C 3G5
COXWELL BLVD,EAST YORK,ON,M4C 3G6
COXWELL BLVD,EAST YORK,ON,M4C 3G7
FAIRSIDE AVE,EAST YORK,ON,M4C 3G8
FAIRSIDE AVE,EAST YORK,ON,M4C 3G9
FAIRSIDE AVE,EAST YORK,ON,M4C 3H1
FAIRSIDE AVE,EAST YORK,ON,M4C 3H2
FAIRSIDE AVE,EAST YORK,ON,M4C 3H3
FAIRSIDE AVE,EAST YORK,ON,M4C 3H4
CRESTLAND AVE,EAST YORK,ON,M4C 3K9
CRESTLAND AVE,EAST YORK,ON,M4C 3L1
BINSWOOD AVE,EAST YORK,ON,M4C 3N3
BINSWOOD AVE,EAST YORK,ON,M4C 3N4
BINSWOOD AVE,EAST YORK,ON,M4C 3N5
BINSWOOD AVE,EAST YORK,ON,M4C 3N6
BINSWOOD AVE,EAST YORK,ON,M4C 3N7
BINSWOOD AVE,EAST YORK,ON,M4C 3N8
BINSWOOD AVE,EAST YORK,ON,M4C 3N9
BINSWOOD AVE,EAST YORK,ON,M4C 3P1
GLEBEMOUNT AVE,EAST YORK,ON,M4C 3S1
GLEBEMOUNT AVE,EAST YORK,ON,M4C 3S2
GLEBEMOUNT AVE,EAST YORK,ON,M4C 3S3
GLEBEMOUNT AVE,EAST YORK,ON,M4C 3S4
GLEBEMOUNT AVE,EAST YORK,ON,M4C 3S5
GLEBEMOUNT AVE,EAST YORK,ON,M4C 3S6
GLEBEMOUNT AVE,EAST YORK,ON,M4C 3S7
GLEBEMOUNT AVE,EAST YORK,ON,M4C 3S8
GLEBEMOUNT AVE,EAST YORK,ON,M4C 3S9
GLEBEMOUNT AVE,EAST YORK,ON,M4C 3T1
GLEBEMOUNT AVE,EAST YORK,ON,M4C 3T2
GLEBEMOUNT AVE,EAST YORK,ON,M4C 3T3
GLEBEMOUNT AVE,EAST YORK,ON,M4C 3T4
GLEBEMOUNT AVE,EAST YORK,ON,M4C 3T5
GLEBEMOUNT AVE,EAST YORK,ON,M4C 3T6
GLEBEMOUNT AVE,EAST YORK,ON,M4C 3T7
GLEBEMOUNT AVE,EAST YORK,ON,M4C 3T8
GLEBEMOUNT AVE,EAST YORK,ON,M4C 3T9
GLEBEMOUNT AVE,EAST YORK,ON,M4C 3V1
GLEBEMOUNT AVE,EAST YORK,ON,M4C 3V2
GLEBEMOUNT AVE,EAST YORK,ON,M4C 3V3
GLEBEMOUNT AVE,EAST YORK,ON,M4C 3V4
GLEBEMOUNT AVE,EAST YORK,ON,M4C 3V5
GLEBEMOUNT AVE,EAST YORK,ON,M4C 3V6
COLERIDGE AVE,EAST YORK,ON,M4C 4H4
COLERIDGE AVE,EAST YORK,ON,M4C 4H5
COLERIDGE AVE,EAST YORK,ON,M4C 4H6
COLERIDGE AVE,EAST YORK,ON,M4C 4H7
COLERIDGE AVE,EAST YORK,ON,M4C 4H8
COLERIDGE AVE,EAST YORK,ON,M4C 4H9
COLERIDGE AVE,EAST YORK,ON,M4C 4J1
COLERIDGE AVE,EAST YORK,ON,M4C 4J2
CEDARVALE AVE,EAST YORK,ON,M4C 4J9
CEDARVALE AVE,EAST YORK,ON,M4C 4K2
CEDARVALE AVE,EAST YORK,ON,M4C 4K3
CEDARVALE AVE,EAST YORK,ON,M4C 4K4
CEDARVALE AVE,EAST YORK,ON,M4C 4K5
CEDARVALE AVE,EAST YORK,ON,M4C 4K6
CEDARVALE AVE,EAST YORK,ON,M4C 4K7
CEDARVALE AVE,EAST YORK,ON,M4C 4K8
GLEDHILL AVE,EAST YORK,ON,M4C 4L1
GLEDHILL AVE,EAST YORK,ON,M4C 4L2
GLEDHILL AVE,EAST YORK,ON,M4C 4L3
EVERETT CRES,EAST YORK,ON,M4C 4P2
EVERETT CRES,EAST YORK,ON,M4C 4P3
EVERETT CRES,EAST YORK,ON,M4C 4P4
CHISHOLM AVE,EAST YORK,ON,M4C 4V5
CHISHOLM AVE,EAST YORK,ON,M4C 4V6
CHISHOLM AVE,EAST YORK,ON,M4C 4V7
CHISHOLM AVE,EAST YORK,ON,M4C 4V8
CHISHOLM AVE,EAST YORK,ON,M4C 4V9
CHISHOLM AVE,EAST YORK,ON,M4C 4W1
CHISHOLM AVE,EAST YORK,ON,M4C 4W2
CHISHOLM AVE,EAST YORK,ON,M4C 4W3
CHISHOLM AVE,EAST YORK,ON,M4C 4W4
CHISHOLM AVE,EAST YORK,ON,M4C 4W5
CHISHOLM AVE,EAST YORK,ON,M4C 4W6
CHISHOLM AVE,EAST YORK,ON,M4C 4W7
CHISHOLM AVE,EAST YORK,ON,M4C 4W8
CHISHOLM AVE,EAST YORK,ON,M4C 4W9
CHISHOLM AVE,EAST YORK,ON,M4C 4X1
BARRINGTON AVE,EAST YORK,ON,M4C 4Y7
BARRINGTON AVE,EAST YORK,ON,M4C 4Y9
BARRINGTON AVE,EAST YORK,ON,M4C 4Z1
BARRINGTON AVE,EAST YORK,ON,M4C 4Z2
EASTDALE AVE,EAST YORK,ON,M4C 4Z8
EASTDALE AVE,EAST YORK,ON,M4C 4Z9
EASTDALE AVE,EAST YORK,ON,M4C 5A1
DAWES RD,EAST YORK,ON,M4C 5B4
DAWES RD,EAST YORK,ON,M4C 5B5
DAWES RD,EAST YORK,ON,M4C 5B6
DAWES RD,EAST YORK,ON,M4C 5B7
DAWES RD,EAST YORK,ON,M4C 5B8
DAWES RD,EAST YORK,ON,M4C 5B9
DAWES RD,EAST YORK,ON,M4C 5C1
DAWES RD,EAST YORK,ON,M4C 5C2
DAWES RD,EAST YORK,ON,M4C 5C3
DAWES RD,EAST YORK,ON,M4C 5C4
AVONLEA BLVD,EAST YORK,ON,M4C 5E5
ELDON AVE,EAST YORK,ON,M4C 5G1
ELDON AVE,EAST YORK,ON,M4C 5G2
ELDON AVE,EAST YORK,ON,M4C 5G3
BRYANT AVE,EAST YORK,ON,M4C 5G8
BRYANT AVE,EAST YORK,ON,M4C 5G9
GLEDHILL AVE,EAST YORK,ON,M4C 5K6
GLEDHILL AVE,EAST YORK,ON,M4C 5K7
GLEDHILL AVE,EAST YORK,ON,M4C 5K8
GLEDHILL AVE,EAST YORK,ON,M4C 5K9
GLEDHILL AVE,EAST YORK,ON,M4C 5L1
GLEDHILL AVE,EAST YORK,ON,M4C 5L2
CRESCENT TOWN RD,EAST YORK,ON,M4C 5L3
BARRINGTON AVE,EAST YORK,ON,M4C 5N1
DONCASTER AVE,EAST YORK,ON,M4C 5S6
BENNINGTON HEIGHTS DR,EAST YORK,ON,M4G 1A6
BENNINGTON HEIGHTS DR,EAST YORK,ON,M4G 1A6
BENNINGTON HEIGHTS DR,EAST YORK,ON,M4G 1A7
BENNINGTON HEIGHTS DR,EAST YORK,ON,M4G 1A7
BENNINGTON HEIGHTS DR,EAST YORK,ON,M4G 1A8
BENNINGTON HEIGHTS DR,EAST YORK,ON,M4G 1A8
BENNINGTON HEIGHTS DR,EAST YORK,ON,M4G 1A9
BENNINGTON HEIGHTS DR,EAST YORK,ON,M4G 1A9
BENNINGTON HEIGHTS DR,EAST YORK,ON,M4G 1B1
BENNINGTON HEIGHTS DR,EAST YORK,ON,M4G 1B1
BURNHAM RD,EAST YORK,ON,M4G 1B9
BURNHAM RD,EAST YORK,ON,M4G 1C1
EVERGREEN GDNS,EAST YORK,ON,M4G 1C2
EVERGREEN GDNS,EAST YORK,ON,M4G 1C3
EVERGREEN GDNS,EAST YORK,ON,M4G 1C4
EVERGREEN GDNS,EAST YORK,ON,M4G 1C5
CANVARCO RD,EAST YORK,ON,M4G 1L3
CANVARCO RD,EAST YORK,ON,M4G 1L4
AIRDRIE RD,EAST YORK,ON,M4G 1L7
AIRDRIE RD,EAST YORK,ON,M4G 1L8
AIRDRIE RD,EAST YORK,ON,M4G 1L9
AIRDRIE RD,EAST YORK,ON,M4G 1M1
AIRDRIE RD,EAST YORK,ON,M4G 1M2
AIRDRIE RD,EAST YORK,ON,M4G 1M3
AIRDRIE RD,EAST YORK,ON,M4G 1M4
AIRDRIE RD,EAST YORK,ON,M4G 1M5
AIRDRIE RD,EAST YORK,ON,M4G 1M6
AIRDRIE RD,EAST YORK,ON,M4G 1M7
AIRDRIE RD,EAST YORK,ON,M4G 1M8
AIRDRIE RD,EAST YORK,ON,M4G 1M9
AIRDRIE RD,EAST YORK,ON,M4G 1N1
AIRDRIE RD,EAST YORK,ON,M4G 1N2
AIRDRIE RD,EAST YORK,ON,M4G 1N3
AIRDRIE RD,EAST YORK,ON,M4G 1N4
FIELD AVE,EAST YORK,ON,M4G 1Y4
FIELD AVE,EAST YORK,ON,M4G 1Y5
FIELD AVE,EAST YORK,ON,M4G 1Y6
CRANDALL RD,EAST YORK,ON,M4G 1Y7
CRANDALL RD,EAST YORK,ON,M4G 1Y8
COMMERCIAL RD,EAST YORK,ON,M4G 1Z3
COMMERCIAL RD,EAST YORK,ON,M4G 1Z4
CAMERON CRES,EAST YORK,ON,M4G 1Z7
CAMERON CRES,EAST YORK,ON,M4G 1Z8
CAMERON CRES,EAST YORK,ON,M4G 1Z9
CAMERON CRES,EAST YORK,ON,M4G 2A1
CAMERON CRES,EAST YORK,ON,M4G 2A2
CAMERON CRES,EAST YORK,ON,M4G 2A3
FLEMING CRES,EAST YORK,ON,M4G 2A8
FLEMING CRES,EAST YORK,ON,M4G 2A9
FLEMING CRES,EAST YORK,ON,M4G 2B1
FLEMING CRES,EAST YORK,ON,M4G 2B2
CROFTON RD,EAST YORK,ON,M4G 2B3
CROFTON RD,EAST YORK,ON,M4G 2B4
EGLINTON AVE E,EAST YORK,ON,M4G 2K3
EGLINTON AVE E,EAST YORK,ON,M4G 2K4
EGLINTON AVE E,EAST YORK,ON,M4G 2K5
EGLINTON AVE E,EAST YORK,ON,M4G 2K6
EGLINTON AVE E,EAST YORK,ON,M4G 2K7
EGLINTON AVE E,EAST YORK,ON,M4G 2K8
EGLINTON AVE E,EAST YORK,ON,M4G 2K9
EGLINTON AVE E,EAST YORK,ON,M4G 2L1
EGLINTON AVE E,EAST YORK,ON,M4G 2L2
EGLINTON AVE E,EAST YORK,ON,M4G 2L3
EGLINTON AVE E,EAST YORK,ON,M4G 2L7
DONLEA DR,EAST YORK,ON,M4G 2M1
DONLEA DR,EAST YORK,ON,M4G 2M2
DONLEA DR,EAST YORK,ON,M4G 2M3
DONLEA DR,EAST YORK,ON,M4G 2M4
DONLEA DR,EAST YORK,ON,M4G 2M5
DONLEA DR,EAST YORK,ON,M4G 2M6
DONLEA DR,EAST YORK,ON,M4G 2M7
DONLEA DR,EAST YORK,ON,M4G 2M8
DONLEA DR,EAST YORK,ON,M4G 2M9
DONLEA DR,EAST YORK,ON,M4G 2N1
DONLEA DR,EAST YORK,ON,M4G 2N2
DONLEA DR,EAST YORK,ON,M4G 2N3
CRAIG CRES,EAST YORK,ON,M4G 2N6
DIVADALE DR,EAST YORK,ON,M4G 2N7
DIVADALE DR,EAST YORK,ON,M4G 2N8
DIVADALE DR,EAST YORK,ON,M4G 2N9
DIVADALE DR,EAST YORK,ON,M4G 2P1
DIVADALE DR,EAST YORK,ON,M4G 2P2
DIVADALE DR,EAST YORK,ON,M4G 2P3
DIVADALE DR,EAST YORK,ON,M4G 2P4
DIVADALE DR,EAST YORK,ON,M4G 2P5
DIVADALE DR,EAST YORK,ON,M4G 2P6
DIVADALE DR,EAST YORK,ON,M4G 2P7
DIVADALE DR,EAST YORK,ON,M4G 2P8
BROADWAY AVE,EAST YORK,ON,M4G 2R1
BROADWAY AVE,EAST YORK,ON,M4G 2R2
BROADWAY AVE,EAST YORK,ON,M4G 2R3
BROADWAY AVE,EAST YORK,ON,M4G 2R4
BROADWAY AVE,EAST YORK,ON,M4G 2R5
BROADWAY AVE,EAST YORK,ON,M4G 2R6
BROADWAY AVE,EAST YORK,ON,M4G 2R7
BROADWAY AVE,EAST YORK,ON,M4G 2R8
BROADWAY AVE,EAST YORK,ON,M4G 2R9
BROADWAY AVE,EAST YORK,ON,M4G 2S1
BROADWAY AVE,EAST YORK,ON,M4G 2S2
BROADWAY AVE,EAST YORK,ON,M4G 2S3
BROADWAY AVE,EAST YORK,ON,M4G 2S4
BROADWAY AVE,EAST YORK,ON,M4G 2S5
BROADWAY AVE,EAST YORK,ON,M4G 2S6
BROADWAY AVE,EAST YORK,ON,M4G 2S7
BROADWAY AVE,EAST YORK,ON,M4G 2S8
ANNESLEY AVE,EAST YORK,ON,M4G 2T5
ANNESLEY AVE,EAST YORK,ON,M4G 2T6
ANNESLEY AVE,EAST YORK,ON,M4G 2T7
FAIRLAND RD,EAST YORK,ON,M4G 2T8
FAIRLAND RD,EAST YORK,ON,M4G 2T9
GLENVALE BLVD,EAST YORK,ON,M4G 2V1
GLENVALE BLVD,EAST YORK,ON,M4G 2V2
GLENVALE BLVD,EAST YORK,ON,M4G 2V3
GLENVALE BLVD,EAST YORK,ON,M4G 2V4
GLENVALE BLVD,EAST YORK,ON,M4G 2V5
GLENVALE BLVD,EAST YORK,ON,M4G 2V6
GLENVALE BLVD,EAST YORK,ON,M4G 2V7
GLENVALE BLVD,EAST YORK,ON,M4G 2V8
GLENVALE BLVD,EAST YORK,ON,M4G 2V9
GLENVALE BLVD,EAST YORK,ON,M4G 2W1
GLENVALE BLVD,EAST YORK,ON,M4G 2W2
GLENVALE BLVD,EAST YORK,ON,M4G 2W4
GLENVALE BLVD,EAST YORK,ON,M4G 2W5
BRENDAN RD,EAST YORK,ON,M4G 2W9
BRENDAN RD,EAST YORK,ON,M4G 2X1
BRENDAN RD,EAST YORK,ON,M4G 2X2
GARDEN CIR,EAST YORK,ON,M4G 2X7
GARDEN CIR,EAST YORK,ON,M4G 2X8
BAYVIEW HEIGHTS DR,EAST YORK,ON,M4G 2Y7
BAYVIEW HEIGHTS DR,EAST YORK,ON,M4G 2Y8
BAYVIEW HEIGHTS DR,EAST YORK,ON,M4G 2Y9
BAYVIEW HEIGHTS DR,EAST YORK,ON,M4G 2Z1
BAYVIEW HEIGHTS DR,EAST YORK,ON,M4G 2Z2
BAYVIEW HEIGHTS DR,EAST YORK,ON,M4G 2Z3
BAYVIEW HEIGHTS DR,EAST YORK,ON,M4G 2Z4
BAYVIEW HEIGHTS DR,EAST YORK,ON,M4G 2Z5
BAYVIEW AVE,EAST YORK,ON,M4G 2Z6
BAYVIEW AVE,EAST YORK,ON,M4G 2Z7
BAYVIEW AVE,EAST YORK,ON,M4G 2Z8
BAYVIEW AVE,EAST YORK,ON,M4G 3A4
BAYVIEW AVE,EAST YORK,ON,M4G 3A5
BAYVIEW AVE,EAST YORK,ON,M4G 3A6
BAYVIEW AVE,EAST YORK,ON,M4G 3A8
BAYVIEW AVE,EAST YORK,ON,M4G 3B5
BAYVIEW AVE,EAST YORK,ON,M4G 3C1
BAYVIEW AVE,EAST YORK,ON,M4G 3C5
BAYVIEW AVE,EAST YORK,ON,M4G 3E1
BAYVIEW AVE,EAST YORK,ON,M4G 3E4
COPELAND ST,EAST YORK,ON,M4G 3E7
BERNEY CRES,EAST YORK,ON,M4G 3G4
DONEGALL DR,EAST YORK,ON,M4G 3G5
DONEGALL DR,EAST YORK,ON,M4G 3G6
DONEGALL DR,EAST YORK,ON,M4G 3G7
DONEGALL DR,EAST YORK,ON,M4G 3G8
DONEGALL DR,EAST YORK,ON,M4G 3G9
DONEGALL DR,EAST YORK,ON,M4G 3H1
DONEGALL DR,EAST YORK,ON,M4G 3H2
BESSBOROUGH DR,EAST YORK,ON,M4G 3H6
BESSBOROUGH DR,EAST YORK,ON,M4G 3H7
BESSBOROUGH DR,EAST YORK,ON,M4G 3H8
BESSBOROUGH DR,EAST YORK,ON,M4G 3H9
BESSBOROUGH DR,EAST YORK,ON,M4G 3J1
BESSBOROUGH DR,EAST YORK,ON,M4G 3J2
BESSBOROUGH DR,EAST YORK,ON,M4G 3J3
BESSBOROUGH DR,EAST YORK,ON,M4G 3J4
BESSBOROUGH DR,EAST YORK,ON,M4G 3J5
BESSBOROUGH DR,EAST YORK,ON,M4G 3J6
BESSBOROUGH DR,EAST YORK,ON,M4G 3J7
BESSBOROUGH DR,EAST YORK,ON,M4G 3J8
BESSBOROUGH DR,EAST YORK,ON,M4G 3J9
BESSBOROUGH DR,EAST YORK,ON,M4G 3K1
BESSBOROUGH DR,EAST YORK,ON,M4G 3K2
BESSBOROUGH DR,EAST YORK,ON,M4G 3K3
BESSBOROUGH DR,EAST YORK,ON,M4G 3K4
BESSBOROUGH DR,EAST YORK,ON,M4G 3K5
BESSBOROUGH DR,EAST YORK,ON,M4G 3K6
BESSBOROUGH DR,EAST YORK,ON,M4G 3K7
BESSBOROUGH DR,EAST YORK,ON,M4G 3K8
BESSBOROUGH DR,EAST YORK,ON,M4G 3K9
BESSBOROUGH DR,EAST YORK,ON,M4G 3L1
BESSBOROUGH DR,EAST YORK,ON,M4G 3L2
BESSBOROUGH DR,EAST YORK,ON,M4G 3L3
BESSBOROUGH DR,EAST YORK,ON,M4G 3L4
ASTOR AVE,EAST YORK,ON,M4G 3M1
ASTOR AVE,EAST YORK,ON,M4G 3M2
BEAUFIELD AVE,EAST YORK,ON,M4G 3R2
BEAUFIELD AVE,EAST YORK,ON,M4G 3R3
BEAUFIELD AVE,EAST YORK,ON,M4G 3R3
GLENBRAE AVE,EAST YORK,ON,M4G 3R4
GLENBRAE AVE,EAST YORK,ON,M4G 3R5
BRENTCLIFFE RD,EAST YORK,ON,M4G 3Y2
BRENTCLIFFE RD,EAST YORK,ON,M4G 3Y4
BRENTCLIFFE RD,EAST YORK,ON,M4G 3Y5
BRENTCLIFFE RD,EAST YORK,ON,M4G 3Y6
BRENTCLIFFE RD,EAST YORK,ON,M4G 3Y7
BRENTCLIFFE RD,EAST YORK,ON,M4G 3Y8
BRENTCLIFFE RD,EAST YORK,ON,M4G 3Y9
EGLINTON AVE E,EAST YORK,ON,M4G 4B5
EGLINTON AVE E,EAST YORK,ON,M4G 4G9
BESSBOROUGH DR,EAST YORK,ON,M4G 4H5
AERODROME CRES,EAST YORK,ON,M4G 4J1
AERODROME CRES,EAST YORK,ON,M4G 4J2
AERODROME CRES,EAST YORK,ON,M4G 4J3
AERODROME CRES,EAST YORK,ON,M4G 4J4
BRIAN PECK CRES,EAST YORK,ON,M4G 4J7
BRIAN PECK CRES,EAST YORK,ON,M4G 4K4
BANIGAN DR,EAST YORK,ON,M4H 1E9
BANIGAN DR,EAST YORK,ON,M4H 1G3
BETH NEALSON DR,EAST YORK,ON,M4H 1M6
ALDWYCH AVE,EAST YORK,ON,M4J 1X1
ALDWYCH AVE,EAST YORK,ON,M4J 1X2
ALDWYCH AVE,EAST YORK,ON,M4J 1X3
ALDWYCH AVE,EAST YORK,ON,M4J 1X4
ALDWYCH AVE,EAST YORK,ON,M4J 1X5
ALDWYCH AVE,EAST YORK,ON,M4J 1X6
ALDWYCH AVE,EAST YORK,ON,M4J 1X7
ALDWYCH AVE,EAST YORK,ON,M4J 1X8
FLOYD AVE,EAST YORK,ON,M4J 2H9
FLOYD AVE,EAST YORK,ON,M4J 2J1
FLOYD AVE,EAST YORK,ON,M4J 2J2
FLOYD AVE,EAST YORK,ON,M4J 2J3
FLOYD AVE,EAST YORK,ON,M4J 2J4
DIEPPE RD,EAST YORK,ON,M4J 2K8
DIEPPE RD,EAST YORK,ON,M4J 2K9
COSBURN AVE,EAST YORK,ON,M4J 2L1
COSBURN AVE,EAST YORK,ON,M4J 2L7
COSBURN AVE,EAST YORK,ON,M4J 2M1
COSBURN AVE,EAST YORK,ON,M4J 2M2
COSBURN AVE,EAST YORK,ON,M4J 2M3
COSBURN AVE,EAST YORK,ON,M4J 2M4
COSBURN AVE,EAST YORK,ON,M4J 2M5
COSBURN AVE,EAST YORK,ON,M4J 2M6
COSBURN AVE,EAST YORK,ON,M4J 2M7
COSBURN AVE,EAST YORK,ON,M4J 2M8
COSBURN AVE,EAST YORK,ON,M4J 2M9
COSBURN AVE,EAST YORK,ON,M4J 2N1
COSBURN AVE,EAST YORK,ON,M4J 2N2
COSBURN AVE,EAST YORK,ON,M4J 2N3
COSBURN AVE,EAST YORK,ON,M4J 2N4
COSBURN AVE,EAST YORK,ON,M4J 2N5
COSBURN AVE,EAST YORK,ON,M4J 2N6
COSBURN AVE,EAST YORK,ON,M4J 2N7
COSBURN AVE,EAST YORK,ON,M4J 2N8
COSBURN AVE,EAST YORK,ON,M4J 2N9
COSBURN AVE,EAST YORK,ON,M4J 2P1
GAMBLE AVE,EAST YORK,ON,M4J 2P2
GAMBLE AVE,EAST YORK,ON,M4J 2P3
GAMBLE AVE,EAST YORK,ON,M4J 2P4
FOUR OAKS GATE,EAST YORK,ON,M4J 2X1
FOUR OAKS GATE,EAST YORK,ON,M4J 2X2
FOUR OAKS GATE,EAST YORK,ON,M4J 2X3
DAVIES CRES,EAST YORK,ON,M4J 2X4
DAVIES CRES,EAST YORK,ON,M4J 2X5
DAVIES CRES,EAST YORK,ON,M4J 2X6
DAVIES CRES,EAST YORK,ON,M4J 2X7
EATON AVE,EAST YORK,ON,M4J 2Z8
EATON AVE,EAST YORK,ON,M4J 2Z9
CHILTON RD,EAST YORK,ON,M4J 3C5
CHILTON RD,EAST YORK,ON,M4J 3C6
CHILTON RD,EAST YORK,ON,M4J 3C7
CHILTON RD,EAST YORK,ON,M4J 3C8
DEWHURST BLVD,EAST YORK,ON,M4J 3J8
DEWHURST BLVD,EAST YORK,ON,M4J 3J9
DEWHURST BLVD,EAST YORK,ON,M4J 3K1
DEWHURST BLVD N,EAST YORK,ON,M4J 3K2
DEWHURST BLVD N,EAST YORK,ON,M4J 3K3
DEWHURST BLVD N,EAST YORK,ON,M4J 3K4
DEWHURST BLVD N,EAST YORK,ON,M4J 3K5
DEWHURST BLVD N,EAST YORK,ON,M4J 3K6
DEWHURST BLVD N,EAST YORK,ON,M4J 3K7
DEWHURST BLVD N,EAST YORK,ON,M4J 3K8
DEWHURST BLVD N,EAST YORK,ON,M4J 3K9
ELMSDALE RD,EAST YORK,ON,M4J 3M3
ELMSDALE RD,EAST YORK,ON,M4J 3M4
DONLANDS AVE,EAST YORK,ON,M4J 3P3
DONLANDS AVE,EAST YORK,ON,M4J 3P4
DONLANDS AVE,EAST YORK,ON,M4J 3P5
DONLANDS AVE,EAST YORK,ON,M4J 3P6
DONLANDS AVE,EAST YORK,ON,M4J 3P7
DONLANDS AVE,EAST YORK,ON,M4J 3P8
DONLANDS AVE,EAST YORK,ON,M4J 3P9
DONLANDS AVE,EAST YORK,ON,M4J 3R1
DONLANDS AVE,EAST YORK,ON,M4J 3R2
DONLANDS AVE,EAST YORK,ON,M4J 3R5
DONLANDS AVE,EAST YORK,ON,M4J 3R7
DONLANDS AVE,EAST YORK,ON,M4J 3R8
DONLANDS AVE,EAST YORK,ON,M4J 3S2
DONLANDS AVE,EAST YORK,ON,M4J 3S4
DONMORE AVE,EAST YORK,ON,M4J 3V3
DONMORE AVE,EAST YORK,ON,M4J 3V4
CADORNA AVE,EAST YORK,ON,M4J 3W7
CADORNA AVE,EAST YORK,ON,M4J 3W8
CADORNA AVE,EAST YORK,ON,M4J 3W9
CADORNA AVE,EAST YORK,ON,M4J 3X1
CADORNA AVE,EAST YORK,ON,M4J 3X2
CADORNA AVE,EAST YORK,ON,M4J 3X3
CADORNA AVE,EAST YORK,ON,M4J 3X4
CADORNA AVE,EAST YORK,ON,M4J 3X5
DON MILLS RD,EAST YORK,ON,M4J 3Z6
DON MILLS RD,EAST YORK,ON,M4J 3Z7
FRANKDALE AVE,EAST YORK,ON,M4J 3Z8
FRANKDALE AVE,EAST YORK,ON,M4J 3Z9
FRANKDALE AVE,EAST YORK,ON,M4J 4A1
FRANKDALE AVE,EAST YORK,ON,M4J 4A2
FRANKDALE AVE,EAST YORK,ON,M4J 4A3
FRANKDALE AVE,EAST YORK,ON,M4J 4A4
DUSTAN CRES,EAST YORK,ON,M4J 4G4
DUSTAN CRES,EAST YORK,ON,M4J 4G5
ATHLONE RD,EAST YORK,ON,M4J 4H1
ATHLONE RD,EAST YORK,ON,M4J 4H2
ATHLONE RD,EAST YORK,ON,M4J 4H3
ATHLONE RD,EAST YORK,ON,M4J 4H4
AIRLEY CRES,EAST YORK,ON,M4J 4H5
AIRLEY CRES,EAST YORK,ON,M4J 4H6
DERWYN RD,EAST YORK,ON,M4J 4M7
DERWYN RD,EAST YORK,ON,M4J 4M8
DERWYN RD,EAST YORK,ON,M4J 4M9
DERWYN RD,EAST YORK,ON,M4J 4N1
BONNIE BRAE BLVD,EAST YORK,ON,M4J 4N2
BONNIE BRAE BLVD,EAST YORK,ON,M4J 4N3
BARFIELD AVE,EAST YORK,ON,M4J 4N4
BARFIELD AVE,EAST YORK,ON,M4J 4N5
DURANT AVE,EAST YORK,ON,M4J 4V9
DURANT AVE,EAST YORK,ON,M4J 4W2
DURANT AVE,EAST YORK,ON,M4J 4W3
DURANT AVE,EAST YORK,ON,M4J 4W4
DURANT AVE,EAST YORK,ON,M4J 4W5
DURANT AVE,EAST YORK,ON,M4J 4W6
COSBURN AVE,EAST YORK,ON,M4J 4Y7
ELMSDALE RD,EAST YORK,ON,M4J 5C6
ELMSDALE RD,EAST YORK,ON,M4J 5C7
BROWNING AVE,EAST YORK,ON,M4K 1X1
BROWNING AVE,EAST YORK,ON,M4K 1X2
FULTON AVE,EAST YORK,ON,M4K 1Y6
FULTON AVE,EAST YORK,ON,M4K 1Y7
DILWORTH CRES,EAST YORK,ON,M4K 1Z5
DILWORTH CRES,EAST YORK,ON,M4K 1Z6
FLOYD AVE,EAST YORK,ON,M4K 2B3
FLOYD AVE,EAST YORK,ON,M4K 2B4
FLOYD AVE,EAST YORK,ON,M4K 2B5
FLOYD AVE,EAST YORK,ON,M4K 2B6
FLOYD AVE,EAST YORK,ON,M4K 2B7
BATER AVE,EAST YORK,ON,M4K 2C1
BATER AVE,EAST YORK,ON,M4K 2C4
BATER AVE,EAST YORK,ON,M4K 2C5
COSBURN AVE,EAST YORK,ON,M4K 2E6
COSBURN AVE,EAST YORK,ON,M4K 2E7
COSBURN AVE,EAST YORK,ON,M4K 2E8
COSBURN AVE,EAST YORK,ON,M4K 2G4
GAMBLE AVE,EAST YORK,ON,M4K 2G8
GAMBLE AVE,EAST YORK,ON,M4K 2H3
GAMBLE AVE,EAST YORK,ON,M4K 2H4
DON VALLEY DR,EAST YORK,ON,M4K 2J1
DON VALLEY DR,EAST YORK,ON,M4K 2J2
DON VALLEY DR,EAST YORK,ON,M4K 2J3
DON VALLEY DR,EAST YORK,ON,M4K 2J4
FERNWOOD GDNS,EAST YORK,ON,M4K 2J8
FERNWOOD GDNS,EAST YORK,ON,M4K 2J9
BEECHWOOD CRES,EAST YORK,ON,M4K 2K8
BEECHWOOD CRES,EAST YORK,ON,M4K 2K8
BEECHWOOD CRES,EAST YORK,ON,M4K 2K9
BEECHWOOD CRES,EAST YORK,ON,M4K 2K9
BROADVIEW AVE,EAST YORK,ON,M4K 2R5
BROADVIEW AVE,EAST YORK,ON,M4K 2R6
BROADVIEW AVE,EAST YORK,ON,M4K 2R9
BROADVIEW AVE,EAST YORK,ON,M4K 2S1
BROADVIEW AVE,EAST YORK,ON,M4K 2S2
BROADVIEW AVE,EAST YORK,ON,M4K 2S4
BROADVIEW AVE,EAST YORK,ON,M4K 2S5
BROADVIEW AVE,EAST YORK,ON,M4K 2S6
BROADVIEW AVE,EAST YORK,ON,M4K 2S7
BROADVIEW AVE,EAST YORK,ON,M4K 2S8
BROADVIEW AVE,EAST YORK,ON,M4K 2T1
BROADVIEW AVE,EAST YORK,ON,M4K 2T2
BROADVIEW AVE,EAST YORK,ON,M4K 2T3
BROADVIEW AVE,EAST YORK,ON,M4K 2T4
BROADVIEW AVE,EAST YORK,ON,M4K 2T5
ARUNDEL AVE,EAST YORK,ON,M4K 3A8
ARUNDEL AVE,EAST YORK,ON,M4K 3A9
ARUNDEL AVE,EAST YORK,ON,M4K 3B1
BEECHWOOD DR,EAST YORK,ON,M4K 3H7
BEECHWOOD DR,EAST YORK,ON,M4K 3H7
BEECHWOOD DR,EAST YORK,ON,M4K 3H8
BEECHWOOD DR,EAST YORK,ON,M4K 3H8
CARLAW AVE,EAST YORK,ON,M4K 3L9
CARLAW AVE,EAST YORK,ON,M4K 3M1
CARLAW AVE,EAST YORK,ON,M4K 3M3
CARLAW AVE,EAST YORK,ON,M4K 3M4
CARLAW AVE,EAST YORK,ON,M4K 3M5
CARLAW AVE,EAST YORK,ON,M4K 3M6
BURLEY AVE,EAST YORK,ON,M4K 3Z6
EAST YORK AVE,EAST YORK,ON,M4K 3Z8
EAST YORK AVE,EAST YORK,ON,M4K 3Z9
DOUGLAS CRES,EAST YORK,ON,M4W 2E6
DOUGLAS CRES,EAST YORK,ON,M4W 2E7
DOUGLAS CRES,EAST YORK,ON,M4W 2E8
